     2.100          NAVIGATION                              RINEX VERSION / TYPE
fic2rin                                 03/31/2009 01:12:35 PGM / RUN BY / DATE
                                                            END OF HEADER
 4 09  3 30 12  0  0.0 -.321581028402D-04 -.146656020661D-10  .000000000000D+00
     .910000000000D+02  .661562500000D+02  .482591530446D-08  .106727301849D+01
     .382401049137D-05  .860545970500D-02  .113956630230D-04  .515371654510D+04
     .129600000000D+06 -.100582838058D-06  .613140999075D+00  .111758708954D-06
     .941152454617D+00  .148968750000D+03  .483282539069D+00 -.811319509000D-08
    -.430375069706D-09  .100000000000D+01  .152500000000D+04  .000000000000D+00
     .340000000000D+01  .000000000000D+00 -.605359673500D-08  .910000000000D+02
     .122406000000D+06  .400000000000D+01
 5 09  3 30 12  0  0.0 -.198488123715D-04 -.109139364213D-10  .000000000000D+00
     .700000000000D+02  .111250000000D+02  .517414409530D-08  .714394299196D+00
     .415369868279D-06  .947820325382D-02  .735186040401D-05  .515358935356D+04
     .129600000000D+06 -.126659870148D-06 -.158285287398D+01  .298023223877D-07
     .945190921899D+00  .228875000000D+03  .129691016158D+01 -.848892502637D-08
     .522164607395D-09  .100000000000D+01  .152500000000D+04  .000000000000D+00
     .965000000000D+01  .630000000000D+02 -.419095158577D-08  .700000000000D+02
     .122406000000D+06  .400000000000D+01
 7 09  3 30 12  0  0.0  .210632570088D-04 -.568434188608D-12  .000000000000D+00
     .100000000000D+02 -.915625000000D+02  .403016787267D-08  .272696310155D+01
    -.462867319584D-05  .236992689315D-02  .100620090961D-04  .515368222618D+04
     .129600000000D+06 -.242143869400D-07 -.253420778658D+01  .260770320892D-07
     .966777445567D+00  .186781250000D+03  .290437366252D+01 -.775710882900D-08
     .283583240952D-09  .100000000000D+01  .152500000000D+04  .000000000000D+00
     .240000000000D+01  .000000000000D+00 -.107102096081D-07  .100000000000D+02
     .122406000000D+06  .400000000000D+01
 8 09  3 30 12  0  0.0 -.196289271116D-03 -.136424205266D-11  .000000000000D+00
     .580000000000D+02 -.741250000000D+02  .360907890405D-08  .202980754227D+01
    -.376068055630D-05  .104883485474D-01  .102482736111D-04  .515366878128D+04
     .129600000000D+06 -.204890966415D-07 -.247507080516D+01  .154599547386D-06
     .987935119189D+00  .196625000000D+03  .298374301749D+01 -.748245453141D-08
     .198222542479D-09  .100000000000D+01  .152500000000D+04  .000000000000D+00
     .240000000000D+01  .000000000000D+00 -.465661287308D-08  .580000000000D+02
     .122406000000D+06  .400000000000D+01
 9 09  3 30 12  0  0.0  .481233000755D-04  .204636307899D-11  .000000000000D+00
     .104000000000D+03 -.766562500000D+02  .372836958727D-08  .178607149108D+01
    -.419281423092D-05  .202898816206D-01  .998564064503D-05  .515365098953D+04
     .129600000000D+06  .178813934326D-06 -.256862838084D+01 -.478699803352D-06
     .975741050388D+00  .195812500000D+03  .146547137456D+01 -.757210112269D-08
     .319299014371D-09  .100000000000D+01  .152500000000D+04  .000000000000D+00
     .340000000000D+01  .000000000000D+00 -.558793544769D-08  .104000000000D+03
     .122406000000D+06  .400000000000D+01
10 09  3 30 12  0  0.0 -.135172158480D-04 -.682121026330D-12  .000000000000D+00
     .530000000000D+02  .934687500000D+02  .460126308965D-08 -.923333916381D+00
     .492855906487D-05  .865363585763D-02  .337138772011D-05  .515357350159D+04
     .129600000000D+06  .180676579475D-06  .167907138354D+01  .726431608200D-07
     .958819266305D+00  .312968750000D+03  .616103392094D+00 -.836141971526D-08
     .346443002170D-10  .100000000000D+01  .152500000000D+04  .000000000000D+00
     .340000000000D+01  .000000000000D+00 -.279396772385D-08  .530000000000D+02
     .122406000000D+06  .400000000000D+01
11 09  3 30 12  0  0.0  .295927748084D-05 -.125055521494D-11  .000000000000D+00
     .830000000000D+02  .397500000000D+02  .601560771706D-08  .257072471757D+01
     .190921127796D-05  .925128953531D-02  .113770365715D-04  .515367919540D+04
     .129600000000D+06 -.800937414169D-07  .397581434737D+00 -.193715095520D-06
     .890112130823D+00  .119875000000D+03  .693118989405D+00 -.841642200633D-08
    -.458947688442D-09  .100000000000D+01  .152500000000D+04  .000000000000D+00
     .240000000000D+01  .000000000000D+00 -.121071934700D-07  .830000000000D+02
     .122406000000D+06  .400000000000D+01
12 09  3 30 12  0  0.0 -.300309620798D-03  .454747350886D-11  .000000000000D+00
     .470000000000D+02  .893750000000D+01  .469126683867D-08  .284618891935D+01
     .324100255966D-06  .334148597904D-02  .684522092342D-05  .515368469429D+04
     .129600000000D+06  .130385160446D-07 -.148239623516D+01  .117346644402D-06
     .966050066606D+00  .246031250000D+03 -.770724890254D+00 -.805104964425D-08
     .546094175586D-09  .100000000000D+01  .152500000000D+04  .000000000000D+00
     .240000000000D+01  .000000000000D+00 -.121071934700D-07  .470000000000D+02
     .122406000000D+06  .400000000000D+01
13 09  3 30 12  0  0.0  .293067190796D-03  .113686837722D-11  .000000000000D+00
     .430000000000D+02 -.768125000000D+02  .380730144653D-08 -.112270641798D+01
    -.394508242607D-05  .395950686652D-02  .348128378391D-05  .515373324394D+04
     .129600000000D+06 -.260770320892D-07  .275804668312D+01  .117346644402D-06
     .995239208759D+00  .331250000000D+03  .152171327621D+01 -.803426323074D-08
    -.249653256203D-09  .100000000000D+01  .152500000000D+04  .000000000000D+00
     .240000000000D+01  .000000000000D+00 -.111758708954D-07  .430000000000D+02
     .122406000000D+06  .400000000000D+01
14 09  3 30 12  0  0.0 -.133378896862D-03  .568434188608D-11  .000000000000D+00
     .105000000000D+03 -.854687500000D+02  .390766276984D-08 -.142283166034D+01
    -.443123281002D-05  .436982279643D-02  .396929681301D-05  .515358898163D+04
     .129600000000D+06  .106170773506D-06  .273891058820D+01  .204890966415D-07
     .988770777495D+00  .318687500000D+03 -.211892073040D+01 -.800890503161D-08
    -.317870383435D-09  .100000000000D+01  .152500000000D+04  .000000000000D+00
     .240000000000D+01  .000000000000D+00 -.931322574615D-08  .105000000000D+03
     .122406000000D+06  .400000000000D+01
15 09  3 30 12  0  0.0 -.275225844234D-03 -.454747350886D-11  .000000000000D+00
     .110000000000D+02 -.737187500000D+02  .451375944477D-08 -.111334315857D+01
    -.385753810406D-05  .143754016608D-02  .341050326824D-05  .515360194016D+04
     .129600000000D+06 -.633299350739D-07  .268828477493D+01  .745058059692D-08
     .956811763805D+00  .313187500000D+03 -.565604576204D+00 -.830463163553D-08
    -.215366113720D-09  .100000000000D+01  .152500000000D+04  .000000000000D+00
     .240000000000D+01  .000000000000D+00 -.977888703346D-08  .110000000000D+02
     .122406000000D+06  .400000000000D+01
16 09  3 30 12  0  0.0  .635227188468D-04 -.306954461848D-11  .000000000000D+00
     .410000000000D+02 -.334375000000D+01  .467055169008D-08  .331930180053D+00
    -.106170773506D-06  .526156299748D-02  .692717730999D-05  .515378176498D+04
     .129600000000D+06  .521540641785D-07 -.146552730338D+01 -.298023223877D-07
     .967540562154D+00  .247750000000D+03 -.375146731647D+00 -.807283626603D-08
     .542879755978D-09  .100000000000D+01  .152500000000D+04  .000000000000D+00
     .240000000000D+01  .000000000000D+00 -.977888703346D-08  .410000000000D+02
     .122406000000D+06  .400000000000D+01
17 09  3 30 12  0  0.0  .521647743881D-04  .159161572810D-11  .000000000000D+00
     .240000000000D+02 -.260312500000D+02  .499127933539D-08 -.758440081034D+00
    -.132247805595D-05  .437908153981D-02  .725127756596D-05  .515365024757D+04
     .129600000000D+06  .428408384323D-07 -.423152050484D+00  .242143869400D-07
     .959930551543D+00  .239781250000D+03 -.268744516674D+01 -.810176604250D-08
    -.328942273195D-09  .100000000000D+01  .152500000000D+04  .000000000000D+00
     .240000000000D+01  .000000000000D+00 -.102445483208D-07  .240000000000D+02
     .122406000000D+06  .400000000000D+01
18 09  3 30 12  0  0.0 -.701230019331D-04  .341060513165D-11  .000000000000D+00
     .660000000000D+02  .934375000000D+02  .509235497417D-08  .476320824994D+00
     .502355396748D-05  .100589650683D-01  .262819230556D-05  .515376526070D+04
     .129600000000D+06 -.428408384323D-07  .168539251943D+01  .206753611565D-06
     .942873824971D+00  .318968750000D+03 -.243583642776D+01 -.868250451831D-08
    -.335728270144D-10  .100000000000D+01  .152500000000D+04  .000000000000D+00
     .240000000000D+01  .000000000000D+00 -.107102096081D-07  .660000000000D+02
     .122406000000D+06  .400000000000D+01
19 09  3 30 12  0  0.0  .295103527606D-04 -.909494701773D-12  .000000000000D+00
     .140000000000D+02 -.216250000000D+02  .496949271360D-08 -.142906282092D+01
    -.129081308842D-05  .539168727119D-02  .791065394878D-05  .515357510757D+04
     .129600000000D+06  .558793544769D-08 -.366939805110D+00 -.102445483208D-06
     .957695455563D+00  .226218750000D+03 -.380065290445D+00 -.811069498586D-08
    -.351086052715D-09  .100000000000D+01  .152500000000D+04  .000000000000D+00
     .240000000000D+01  .000000000000D+00 -.149011611938D-07  .140000000000D+02
     .122406000000D+06  .400000000000D+01
20 09  3 30 12  0  0.0  .867340713739D-04 -.102318153949D-11  .000000000000D+00
     .840000000000D+02  .118687500000D+03  .500056543648D-08  .639896609188D+00
     .611320137978D-05  .404378853273D-02  .381469726562D-05  .515364795494D+04
     .129600000000D+06 -.614672899246D-07  .163155392886D+01 -.372529029846D-07
     .942503374614D+00  .295687500000D+03  .133784935057D+01 -.857142846297D-08
     .621454457501D-10  .100000000000D+01  .152500000000D+04  .000000000000D+00
     .240000000000D+01  .000000000000D+00 -.651925802231D-08  .840000000000D+02
     .122406000000D+06  .400000000000D+01
